line1,line2,validFromUtcTime
1 00000U 00000E   26001.00000000  .00000000  00000-0  27772-4 0    01,2 00000  88.8592 105.3338 0009821 270.5328 171.9307 13.55235309    06,2026-01-01T00:00:00Z
1 00000U 00000E   26002.00000000  .00000000  00000-0  27772-4 0    02,2 00000  88.8592 105.2178 0009821 267.6234  10.7762 13.55235347    07,2026-01-02T00:00:00Z
